#aV2021  1  3  0  0  0.00000000     288 DD+AD WGS84 FIT  NGA
## 2139      0.00000000   300.00000000 59217 0.0000000000000
+   32     1  2  3  4  5  6  7  8  9 10 11 12 13 14 15 16 17
+         18 19 20 21 22 23 24 25 26 27 28 29 30 31 32  0  0
+          0  0  0  0  0  0  0  0  0  0  0  0  0  0  0  0  0
+          0  0  0  0  0  0  0  0  0  0  0  0  0  0  0  0  0
+          0  0  0  0  0  0  0  0  0  0  0  0  0  0  0  0  0
++         2  2  2  2  2  2  2  2  2  2  2  2  2  2  2  2  2
++         2  2  2  2  2  2  2  2  2  2  2  2  2  2  2  0  0
++         0  0  0  0  0  0  0  0  0  0  0  0  0  0  0  0  0
++         0  0  0  0  0  0  0  0  0  0  0  0  0  0  0  0  0
++         0  0  0  0  0  0  0  0  0  0  0  0  0  0  0  0  0
%c cc cc ccc ccc cccc cccc cccc cccc ccccc ccccc ccccc ccccc
%c cc cc ccc ccc cccc cccc cccc cccc ccccc ccccc ccccc ccccc
%f  0.0000000  0.000000000  0.00000000000  0.000000000000000
%f  0.0000000  0.000000000  0.00000000000  0.000000000000000
%i    0    0    0    0      0      0      0      0         0
%i    0    0    0    0      0      0      0      0         0
/*      NGA, ST. LOUIS,MO.                                  
/*   EPHEMERIS COMPUTED FROM 2 DAYS OF DATA                 
/*   EPOCHA v5 SMOOTHER                                     
/*   G2139 IERS2010 SATAF SATAPC                            
*  2021  1  3 16 25  0.00000000
P  1 -18224.423984  -8145.563463  17449.538266    786.145361                    
V  1 -10306.402835 -19980.185548 -19495.728780     -0.059934                    
P  2  13888.276748  22581.264279   2191.231333   -561.893126                    
V  2  -3405.435137    -50.535668  31619.162403     -0.042910                    
P  3 -17578.771377   4132.615567  19361.455878    -46.819036                    
V  3  10996.754204 -22231.866315  14765.717713     -0.098541                    
P  4 -26523.589204  -1366.278899   1220.075588   -169.801727                    
V  4   1598.579062  -2773.801006  31654.473887     -0.030875                    
P  5   8047.251700  15477.742034 -20130.736853    -30.031600                    
V  5 -12644.776899  21939.938819  12083.909166     -0.009803                    
P  6   3010.808398  22690.346701  13498.771420     -4.624723                    
V  6 -10161.397305 -13751.565371  25543.594245     -0.001260                    
P  7 -12805.469318   8294.949689 -21398.744516      7.622710                    
V  7 -14378.531289 -24036.321087  -1180.961046      0.146924                    
P  8 -24328.589353  -5723.754367  -9400.415451     -5.282922                    
V  8  11779.782161  -2469.607123 -28669.201973     -0.013417                    
P  9 -23281.199818   7912.886332 -10130.664881   -308.785727                    
V  9 -12854.159046  -2298.966756  27901.383486     -0.041898                    
P 10  11195.048546 -23795.984479   2585.795724    -30.947646                    
V 10   3986.760359  -1425.284921 -31866.509033     -0.086104                    
P 11 -23705.603591 -10267.024605   4828.160930    -63.198527                    
V 11  -3390.379375  -7443.685219 -30073.739973      0.105679                    
P 12  16368.860734    513.075329  20633.498774     17.976053                    
V 12 -13942.431461  22844.816833  10520.643125     -0.052151                    
P 13  16845.601173  13084.869664 -16038.747311     81.938512                    
V 13 -20107.833155   -668.706872 -21735.080311      0.040688                    
P 14 -13637.210851  22781.746864    631.593435     78.924882                    
V 14  -2867.050126   -827.098721 -31710.214862      0.074349                    
P 15  25143.018435   3453.086835  -8791.903525   -178.826948                    
V 15 -10148.860752   4438.827610 -28079.464085      0.025862                    
P 16  -5669.934357 -16160.111864 -20398.006744   -259.767988                    
V 16  15274.531344 -20427.142123  12524.671888     -0.055233                    
P 17  -8512.713973  13894.276843  21405.226421    375.556910                    
V 17 -26064.007698  -1735.907396  -9446.549294      0.048551                    
P 18  10928.887919 -10957.943330 -21583.850204    338.403162                    
V 18  13855.708403  23624.875131  -5034.439816      0.031169                    
P 19   -256.397433  14661.123308  21865.893687    -56.723196                    
V 19 -28274.030831  -2512.948705   1254.959429      0.050019                    
P 20  15313.072476 -19085.056009 -10052.727025    525.328421                    
V 20  -1500.478821  13156.329666 -27697.470815     -0.001832                    
P 21 -19928.591110 -13944.059551  11871.594202     83.561741                    
V 21  -6228.989688 -12499.501742 -26431.103559      0.034031                    
P 22 -15155.885381  -4952.998576  21430.926688   -704.537552                    
V 22  10594.238907 -24696.574237   1964.234575      0.064531                    
P 23  16417.373894 -19286.659814  -7963.395336    114.320805                    
V 23  -2413.009270  10126.297213 -29628.578550      0.020417                    
P 24  19922.274965  11236.469984  13587.854521      4.182197                    
V 24   7830.092718  15924.131069 -23839.975902     -0.006501                    
P 25  18199.740546 -13480.463682  13397.496299     52.452898                    
V 25  -6429.691794  16487.105563  25133.381159      0.074909                    
P 26   1824.653913 -23335.787328 -12346.335105     24.421927                    
V 26   9731.945543 -12716.134941  25819.713065      0.057508                    
P 27 -14693.606544 -12377.614307 -18644.553296    -48.506642                    
V 27  23174.975334  -1343.094654 -17166.537953     -0.078626                    
P 28 -11968.728627  23395.614267   5042.795932    634.622624                    
V 28  -4920.452415   3461.367790 -31107.300467     -0.050120                    
P 29  24349.476701  -4915.140049  -9498.970777   -268.737467                    
V 29  11841.674211   2501.995414  29130.408299     -0.073919                    
P 30  -4991.102850  18538.746440 -18218.140164   -363.044447                    
V 30 -13123.514685 -19453.931024 -16377.774452     -0.061708                    
P 31  -4283.284194 -23508.015063  11006.901908    -91.637732                    
V 31   9527.646381  11007.876057  27497.528850     -0.023531                    
P 32   7121.525245 -14869.582465  20879.624529     12.224797                    
V 32  26371.585523    337.328441  -8953.459088      0.022621                    
EOF
